[{"OBJECT_NAME":"KUIPER-00210","OBJECT_ID":"2025-301P","EPOCH":"2026-03-07T06:00:00.999648","MEAN_MOTION":14.83317787,"ECCENTRICITY":0.00091194,"INCLINATION":51.8992,"RA_OF_ASC_NODE":83.9688,"ARG_OF_PERICENTER":61.685,"MEAN_ANOMALY":60.2199,"EPHEMERIS_TYPE":0,"CLASSIFICATION_TYPE":"U","NORAD_CAT_ID":67146,"ELEMENT_SET_NO":999,"REV_AT_EPOCH":586,"BSTAR":-0.0051015466,"MEAN_MOTION_DOT":-0.00042182,"MEAN_MOTION_DDOT":0},{"OBJECT_NAME":"KUIPER-00221","OBJECT_ID":"2025-301Q","EPOCH":"2026-03-07T07:30:39.893472","MEAN_MOTION":14.79936031,"ECCENTRICITY":6.754e-5,"INCLINATION":51.8989,"RA_OF_ASC_NODE":91.1162,"ARG_OF_PERICENTER":19.624,"MEAN_ANOMALY":340.4748,"EPHEMERIS_TYPE":0,"CLASSIFICATION_TYPE":"U","NORAD_CAT_ID":67147,"ELEMENT_SET_NO":999,"REV_AT_EPOCH":1317,"BSTAR":-3.3599453e-5,"MEAN_MOTION_DOT":-4.77e-6,"MEAN_MOTION_DDOT":0},{"OBJECT_NAME":"KUIPER-00232","OBJECT_ID":"2025-301R","EPOCH":"2026-03-07T06:00:00.999648","MEAN_MOTION":15.11796182,"ECCENTRICITY":0.00032477,"INCLINATION":51.8836,"RA_OF_ASC_NODE":77.9231,"ARG_OF_PERICENTER":134.2227,"MEAN_ANOMALY":22.3293,"EPHEMERIS_TYPE":0,"CLASSIFICATION_TYPE":"U","NORAD_CAT_ID":67148,"ELEMENT_SET_NO":999,"REV_AT_EPOCH":558,"BSTAR":-0.11656464,"MEAN_MOTION_DOT":-0.0183181,"MEAN_MOTION_DDOT":0},{"OBJECT_NAME":"KUIPER-00241","OBJECT_ID":"2025-301S","EPOCH":"2026-03-07T07:38:20.481504","MEAN_MOTION":14.79909488,"ECCENTRICITY":9.304e-5,"INCLINATION":51.9021,"RA_OF_ASC_NODE":86.0972,"ARG_OF_PERICENTER":115.7387,"MEAN_ANOMALY":244.3672,"EPHEMERIS_TYPE":0,"CLASSIFICATION_TYPE":"U","NORAD_CAT_ID":67149,"ELEMENT_SET_NO":999,"REV_AT_EPOCH":1357,"BSTAR":-0.0027658167,"MEAN_MOTION_DOT":-0.00021228,"MEAN_MOTION_DDOT":0},{"OBJECT_NAME":"KUIPER-00245","OBJECT_ID":"2025-301T","EPOCH":"2026-03-07T07:26:48.060672","MEAN_MOTION":14.79934534,"ECCENTRICITY":2.726e-5,"INCLINATION":51.9002,"RA_OF_ASC_NODE":93.6477,"ARG_OF_PERICENTER":165.6205,"MEAN_ANOMALY":194.4765,"EPHEMERIS_TYPE":0,"CLASSIFICATION_TYPE":"U","NORAD_CAT_ID":67150,"ELEMENT_SET_NO":999,"REV_AT_EPOCH":1313,"BSTAR":-0.0046909781,"MEAN_MOTION_DOT":-0.00035793,"MEAN_MOTION_DDOT":0},{"OBJECT_NAME":"KUIPER-00246","OBJECT_ID":"2025-301U","EPOCH":"2026-03-07T06:00:00.999648","MEAN_MOTION":15.04272129,"ECCENTRICITY":0.00053013,"INCLINATION":51.888,"RA_OF_ASC_NODE":79.4761,"ARG_OF_PERICENTER":61.1992,"MEAN_ANOMALY":124.3083,"EPHEMERIS_TYPE":0,"CLASSIFICATION_TYPE":"U","NORAD_CAT_ID":67151,"ELEMENT_SET_NO":999,"REV_AT_EPOCH":577,"BSTAR":-0.093375315,"MEAN_MOTION_DOT":-0.0120461,"MEAN_MOTION_DDOT":0},{"OBJECT_NAME":"KUIPER-00247","OBJECT_ID":"2025-301V","EPOCH":"2026-03-07T06:26:00.527424","MEAN_MOTION":15.36728711,"ECCENTRICITY":0.00143965,"INCLINATION":51.8621,"RA_OF_ASC_NODE":77.6723,"ARG_OF_PERICENTER":48.7864,"MEAN_ANOMALY":311.4361,"EPHEMERIS_TYPE":0,"CLASSIFICATION_TYPE":"U","NORAD_CAT_ID":67152,"ELEMENT_SET_NO":999,"REV_AT_EPOCH":1335,"BSTAR":0.0009495634,"MEAN_MOTION_DOT":0.00034479,"MEAN_MOTION_DDOT":0},{"OBJECT_NAME":"KUIPER-00248","OBJECT_ID":"2025-301W","EPOCH":"2026-03-07T07:11:53.955456","MEAN_MOTION":15.3733396,"ECCENTRICITY":0.00113469,"INCLINATION":51.8677,"RA_OF_ASC_NODE":77.1804,"ARG_OF_PERICENTER":35.8421,"MEAN_ANOMALY":324.3325,"EPHEMERIS_TYPE":0,"CLASSIFICATION_TYPE":"U","NORAD_CAT_ID":67153,"ELEMENT_SET_NO":999,"REV_AT_EPOCH":1353,"BSTAR":0.0015776438,"MEAN_MOTION_DOT":0.00058802,"MEAN_MOTION_DDOT":0},{"OBJECT_NAME":"KUIPER-00249","OBJECT_ID":"2025-301X","EPOCH":"2026-03-07T06:31:50.099232","MEAN_MOTION":15.38005024,"ECCENTRICITY":0.00104945,"INCLINATION":51.8634,"RA_OF_ASC_NODE":76.9842,"ARG_OF_PERICENTER":36.4899,"MEAN_ANOMALY":323.6801,"EPHEMERIS_TYPE":0,"CLASSIFICATION_TYPE":"U","NORAD_CAT_ID":67154,"ELEMENT_SET_NO":999,"REV_AT_EPOCH":1336,"BSTAR":0.0011205431,"MEAN_MOTION_DOT":0.0004247,"MEAN_MOTION_DDOT":0},{"OBJECT_NAME":"KUIPER-00250","OBJECT_ID":"2025-301Y","EPOCH":"2026-03-07T06:00:00.999648","MEAN_MOTION":14.93867588,"ECCENTRICITY":0.00099603,"INCLINATION":51.9391,"RA_OF_ASC_NODE":81.0124,"ARG_OF_PERICENTER":46.0558,"MEAN_ANOMALY":107.7149,"EPHEMERIS_TYPE":0,"CLASSIFICATION_TYPE":"U","NORAD_CAT_ID":67155,"ELEMENT_SET_NO":999,"REV_AT_EPOCH":590,"BSTAR":-0.11355359,"MEAN_MOTION_DOT":-0.01136625,"MEAN_MOTION_DDOT":0},{"OBJECT_NAME":"KUIPER-00251","OBJECT_ID":"2025-301Z","EPOCH":"2026-03-07T06:56:52.889856","MEAN_MOTION":15.37527364,"ECCENTRICITY":0.00112844,"INCLINATION":51.8674,"RA_OF_ASC_NODE":77.1019,"ARG_OF_PERICENTER":40.7463,"MEAN_ANOMALY":319.4366,"EPHEMERIS_TYPE":0,"CLASSIFICATION_TYPE":"U","NORAD_CAT_ID":67156,"ELEMENT_SET_NO":999,"REV_AT_EPOCH":1355,"BSTAR":0.0013131029,"MEAN_MOTION_DOT":0.00049121,"MEAN_MOTION_DDOT":0},{"OBJECT_NAME":"KUIPER-00252","OBJECT_ID":"2025-301AA","EPOCH":"2026-03-07T07:22:51.783456","MEAN_MOTION":15.37252341,"ECCENTRICITY":0.00126931,"INCLINATION":51.865,"RA_OF_ASC_NODE":77.2136,"ARG_OF_PERICENTER":43.3501,"MEAN_ANOMALY":316.8482,"EPHEMERIS_TYPE":0,"CLASSIFICATION_TYPE":"U","NORAD_CAT_ID":67157,"ELEMENT_SET_NO":999,"REV_AT_EPOCH":1336,"BSTAR":0.0020776584,"MEAN_MOTION_DOT":0.00077589,"MEAN_MOTION_DDOT":0},{"OBJECT_NAME":"KUIPER-00261","OBJECT_ID":"2025-301AB","EPOCH":"2026-03-07T06:00:00.999648","MEAN_MOTION":14.90712943,"ECCENTRICITY":0.00111802,"INCLINATION":51.8973,"RA_OF_ASC_NODE":81.2996,"ARG_OF_PERICENTER":48.8039,"MEAN_ANOMALY":184.4193,"EPHEMERIS_TYPE":0,"CLASSIFICATION_TYPE":"U","NORAD_CAT_ID":67158,"ELEMENT_SET_NO":999,"REV_AT_EPOCH":557,"BSTAR":-0.0028526651,"MEAN_MOTION_DOT":-0.00028452,"MEAN_MOTION_DDOT":0},{"OBJECT_NAME":"KUIPER-00265","OBJECT_ID":"2025-301AC","EPOCH":"2026-03-07T07:22:55.915104","MEAN_MOTION":14.7994665,"ECCENTRICITY":0.00010278,"INCLINATION":51.9019,"RA_OF_ASC_NODE":96.1454,"ARG_OF_PERICENTER":37.6523,"MEAN_ANOMALY":322.4511,"EPHEMERIS_TYPE":0,"CLASSIFICATION_TYPE":"U","NORAD_CAT_ID":67159,"ELEMENT_SET_NO":999,"REV_AT_EPOCH":1313,"BSTAR":0.000736333,"MEAN_MOTION_DOT":5.398e-5,"MEAN_MOTION_DDOT":0},{"OBJECT_NAME":"KUIPER-00159","OBJECT_ID":"2026-030A","EPOCH":"2026-03-07T06:56:58.151616","MEAN_MOTION":15.35687389,"ECCENTRICITY":0.00047285,"INCLINATION":51.8843,"RA_OF_ASC_NODE":230.7389,"ARG_OF_PERICENTER":35.2436,"MEAN_ANOMALY":324.8862,"EPHEMERIS_TYPE":0,"CLASSIFICATION_TYPE":"U","NORAD_CAT_ID":67764,"ELEMENT_SET_NO":999,"REV_AT_EPOCH":472,"BSTAR":0.0020259714,"MEAN_MOTION_DOT":0.00071707,"MEAN_MOTION_DDOT":0},{"OBJECT_NAME":"KUIPER-00160","OBJECT_ID":"2026-030B","EPOCH":"2026-03-07T06:58:59.841696","MEAN_MOTION":15.35515905,"ECCENTRICITY":0.00052558,"INCLINATION":51.8811,"RA_OF_ASC_NODE":230.74,"ARG_OF_PERICENTER":47.6609,"MEAN_ANOMALY":312.4821,"EPHEMERIS_TYPE":0,"CLASSIFICATION_TYPE":"U","NORAD_CAT_ID":67765,"ELEMENT_SET_NO":999,"REV_AT_EPOCH":472,"BSTAR":0.0022133805,"MEAN_MOTION_DOT":0.00078016,"MEAN_MOTION_DDOT":0}]
