KUIPER-00210            
1 67146U 25301P   26066.25001157 -.00042182  00000+0 -51015-2 0  9998
2 67146  51.8992  83.9688 0009119  61.6850  60.2199 14.83317787  5863
KUIPER-00221            
1 67147U 25301Q   26066.31296173 -.00000477  00000+0 -33599-4 0  9990
2 67147  51.8989  91.1162 0000675  19.6240 340.4748 14.79936031 13172
KUIPER-00232            
1 67148U 25301R   26066.25001157 -.01831810  00000+0 -11656+0 0  9999
2 67148  51.8836  77.9231 0003247 134.2227  22.3293 15.11796182  5585
KUIPER-00241            
1 67149U 25301S   26066.31829261 -.00021228  00000+0 -27658-2 0  9996
2 67149  51.9021  86.0972 0000930 115.7387 244.3672 14.79909488 13576
KUIPER-00245            
1 67150U 25301T   26066.31027848 -.00035793  00000+0 -46910-2 0  9993
2 67150  51.9002  93.6477 0000272 165.6205 194.4765 14.79934534 13133
KUIPER-00246            
1 67151U 25301U   26066.25001157 -.01204610  00000+0 -93375-1 0  9995
2 67151  51.8880  79.4761 0005301  61.1992 124.3083 15.04272129  5776
KUIPER-00247            
1 67152U 25301V   26066.26806166  .00034479  00000+0  94956-3 0  9999
2 67152  51.8621  77.6723 0014396  48.7864 311.4361 15.36728711 13350
KUIPER-00248            
1 67153U 25301W   26066.29993004  .00058802  00000+0  15776-2 0  9999
2 67153  51.8677  77.1804 0011346  35.8421 324.3325 15.37333960 13537
KUIPER-00249            
1 67154U 25301X   26066.27210763  .00042470  00000+0  11205-2 0  9999
2 67154  51.8634  76.9842 0010494  36.4899 323.6801 15.38005024 13369
KUIPER-00250            
1 67155U 25301Y   26066.25001157 -.01136625  00000+0 -11355+0 0  9995
2 67155  51.9391  81.0124 0009960  46.0558 107.7149 14.93867588  5904
KUIPER-00251            
1 67156U 25301Z   26066.28950104  .00049121  00000+0  13131-2 0  9992
2 67156  51.8674  77.1019 0011284  40.7463 319.4366 15.37527364 13552
KUIPER-00252            
1 67157U 25301AA  26066.30754379  .00077589  00000+0  20777-2 0  9995
2 67157  51.8650  77.2136 0012693  43.3501 316.8482 15.37252341 13364
KUIPER-00261            
1 67158U 25301AB  26066.25001157 -.00028452  00000+0 -28527-2 0  9997
2 67158  51.8973  81.2996 0011180  48.8039 184.4193 14.90712943  5577
KUIPER-00265            
1 67159U 25301AC  26066.30759161  .00005398  00000+0  73633-3 0  9990
2 67159  51.9019  96.1454 0001027  37.6523 322.4511 14.79946650 13137
KUIPER-00159            
1 67764U 26030A   26066.28956194  .00071707  00000+0  20260-2 0  9998
2 67764  51.8843 230.7389 0004728  35.2436 324.8862 15.35687389  4728
KUIPER-00160            
1 67765U 26030B   26066.29097039  .00078016  00000+0  22134-2 0  9996
2 67765  51.8811 230.7400 0005255  47.6609 312.4821 15.35515905  4725
